{"type": "FeatureCollection", "features": [ {"type": "Feature", "properties": {"norad_id": 40697, "name": "SENTINEL-2A", "group": "resource", "lat": 76.10028249226113, "lon": -80.02892535245685, "alt_km": 781.0360016322547, "timestamp": "2025-12-15T22:44:28.580641+00:00", "meta": {"OBJECT_NAME": "SENTINEL-2A", "OBJECT_ID": "2015-028A", "EPOCH": "2025-12-15T08:50:40.608384", "MEAN_MOTION": 14.30814698, "ECCENTRICITY": 0.00010823, "INCLINATION": 98.5689, "RA_OF_ASC_NODE": 61.8632, "ARG_OF_PERICENTER": 88.7164, "MEAN_ANOMALY": 271.4143, "EPHEMERIS_TYPE": 0, "CLASSIFICATION_TYPE": "U", "NORAD_CAT_ID": 40697, "ELEMENT_SET_NO": 999, "REV_AT_EPOCH": 54744, "BSTAR": 8.6124519e-05, "MEAN_MOTION_DOT": 1.82e-06, "MEAN_MOTION_DDOT": 0}, "tle": {"line1": "1 40697U 15028A   25349.36852556  .00000182  00000+0  86125-4 0  9991", "line2": "2 40697  98.5689  61.8632 0001082  88.7164 271.4143 14.30814698547444"}}, "geometry": {"type": "Point", "coordinates": [-80.02892535245685, 76.10028249226113]}}, {"type": "Feature", "properties": {"norad_id": 40701, "name": "GAOFEN-8", "group": "resource", "lat": -48.9779577114277, "lon": 177.17982236256387, "alt_km": 464.9810130496735, "timestamp": "2025-12-15T22:44:28.580652+00:00", "meta": {"OBJECT_NAME": "GAOFEN-8", "OBJECT_ID": "2015-030A", "EPOCH": "2025-12-15T08:54:33.998112", "MEAN_MOTION": 15.38639417, "ECCENTRICITY": 0.00116918, "INCLINATION": 97.6907, "RA_OF_ASC_NODE": 167.6393, "ARG_OF_PERICENTER": 129.3041, "MEAN_ANOMALY": 230.9242, "EPHEMERIS_TYPE": 0, "CLASSIFICATION_TYPE": "U", "NORAD_CAT_ID": 40701, "ELEMENT_SET_NO": 999, "REV_AT_EPOCH": 58311, "BSTAR": 0.00033430774, "MEAN_MOTION_DOT": 0.00012705, "MEAN_MOTION_DDOT": 0}, "tle": {"line1": "1 40701U 15030A   25349.37122683  .00012705  00000+0  33431-3 0  9997", "line2": "2 40701  97.6907 167.6393 0011691 129.3041 230.9242 15.38639417583112"}}, "geometry": {"type": "Point", "coordinates": [177.17982236256387, -48.9779577114277]}}, {"type": "Feature", "properties": {"norad_id": 40718, "name": "CARBONITE 1 (CBNT-1)", "group": "resource", "lat": -41.69251943085882, "lon": 177.71735660176554, "alt_km": 635.8557127345803, "timestamp": "2025-12-15T22:44:28.580662+00:00", "meta": {"OBJECT_NAME": "CARBONITE 1 (CBNT-1)", "OBJECT_ID": "2015-032D", "EPOCH": "2025-12-15T08:21:18.565056", "MEAN_MOTION": 14.827602, "ECCENTRICITY": 0.00146034, "INCLINATION": 97.6405, "RA_OF_ASC_NODE": 170.2772, "ARG_OF_PERICENTER": 172.3961, "MEAN_ANOMALY": 187.7478, "EPHEMERIS_TYPE": 0, "CLASSIFICATION_TYPE": "U", "NORAD_CAT_ID": 40718, "ELEMENT_SET_NO": 999, "REV_AT_EPOCH": 56209, "BSTAR": 0.00028447412, "MEAN_MOTION_DOT": 2.252e-05, "MEAN_MOTION_DDOT": 0}, "tle": {"line1": "1 40718U 15032D   25349.34813154  .00002252  00000+0  28447-3 0  9991", "line2": "2 40718  97.6405 170.2772 0014603 172.3961 187.7478 14.82760200562096"}}, "geometry": {"type": "Point", "coordinates": [177.71735660176554, -41.69251943085882]}}, {"type": "Feature", "properties": {"norad_id": 40878, "name": "YAOGAN-27", "group": "resource", "lat": -71.33682792807853, "lon": 127.56995956462269, "alt_km": 1201.7798796516545, "timestamp": "2025-12-15T22:44:28.580673+00:00", "meta": {"OBJECT_NAME": "YAOGAN-27", "OBJECT_ID": "2015-040A", "EPOCH": "2025-12-15T08:40:52.792896", "MEAN_MOTION": 13.16059235, "ECCENTRICITY": 0.00076308, "INCLINATION": 100.1012, "RA_OF_ASC_NODE": 338.8634, "ARG_OF_PERICENTER": 280.5485, "MEAN_ANOMALY": 79.4769, "EPHEMERIS_TYPE": 0, "CLASSIFICATION_TYPE": "U", "NORAD_CAT_ID": 40878, "ELEMENT_SET_NO": 999, "REV_AT_EPOCH": 49348, "BSTAR": -0.00039165459, "MEAN_MOTION_DOT": -1.91e-06, "MEAN_MOTION_DDOT": 0}, "tle": {"line1": "1 40878U 15040A   25349.36172214 -.00000191  00000+0 -39165-3 0  9995", "line2": "2 40878 100.1012 338.8634 0007630 280.5485  79.4769 13.16059235493482"}}, "geometry": {"type": "Point", "coordinates": [127.56995956462269, -71.33682792807853]}}, {"type": "Feature", "properties": {"norad_id": 40894, "name": "GAOFEN-9 01", "group": "resource", "lat": -54.077783441030746, "lon": -161.93304178133815, "alt_km": 645.6481697955023, "timestamp": "2025-12-15T22:44:28.580683+00:00", "meta": {"OBJECT_NAME": "GAOFEN-9 01", "OBJECT_ID": "2015-047A", "EPOCH": "2025-12-15T08:43:32.954304", "MEAN_MOTION": 14.82428673, "ECCENTRICITY": 0.00281904, "INCLINATION": 97.6541, "RA_OF_ASC_NODE": 28.2058, "ARG_OF_PERICENTER": 25.906, "MEAN_ANOMALY": 334.3558, "EPHEMERIS_TYPE": 0, "CLASSIFICATION_TYPE": "U", "NORAD_CAT_ID": 40894, "ELEMENT_SET_NO": 999, "REV_AT_EPOCH": 55295, "BSTAR": 0.00015860261, "MEAN_MOTION_DOT": 1.229e-05, "MEAN_MOTION_DDOT": 0}, "tle": {"line1": "1 40894U 15047A   25349.36357586  .00001229  00000+0  15860-3 0  9994", "line2": "2 40894  97.6541  28.2058 0028190  25.9060 334.3558 14.82428673552958"}}, "geometry": {"type": "Point", "coordinates": [-161.93304178133815, -54.077783441030746]}}, {"type": "Feature", "properties": {"norad_id": 41026, "name": "YAOGAN-28", "group": "resource", "lat": 29.55160548191116, "lon": -48.194795994755495, "alt_km": 484.11781687659914, "timestamp": "2025-12-15T22:44:28.580693+00:00", "meta": {"OBJECT_NAME": "YAOGAN-28", "OBJECT_ID": "2015-064A", "EPOCH": "2025-12-15T09:28:58.001664", "MEAN_MOTION": 15.24402859, "ECCENTRICITY": 0.00124926, "INCLINATION": 97.28, "RA_OF_ASC_NODE": 127.1121, "ARG_OF_PERICENTER": 117.4498, "MEAN_ANOMALY": 242.8012, "EPHEMERIS_TYPE": 0, "CLASSIFICATION_TYPE": "U", "NORAD_CAT_ID": 41026, "ELEMENT_SET_NO": 999, "REV_AT_EPOCH": 56265, "BSTAR": 0.00026551999, "MEAN_MOTION_DOT": 6.453e-05, "MEAN_MOTION_DDOT": 0}, "tle": {"line1": "1 41026U 15064A   25349.39511576  .00006453  00000+0  26552-3 0  9999", "line2": "2 41026  97.2800 127.1121 0012492 117.4498 242.8012 15.24402859562651"}}, "geometry": {"type": "Point", "coordinates": [-48.194795994755495, 29.55160548191116]}}, {"type": "Feature", "properties": {"norad_id": 41038, "name": "YAOGAN-29", "group": "resource", "lat": 51.11405759141738, "lon": -156.79847413580674, "alt_km": 615.4936773838572, "timestamp": "2025-12-15T22:44:28.580704+00:00", "meta": {"OBJECT_NAME": "YAOGAN-29", "OBJECT_ID": "2015-069A", "EPOCH": "2025-12-15T07:35:25.749600", "MEAN_MOTION": 14.82888391, "ECCENTRICITY": 1.224e-05, "INCLINATION": 98.0225, "RA_OF_ASC_NODE": 12.4967, "ARG_OF_PERICENTER": 207.3114, "MEAN_ANOMALY": 152.8093, "EPHEMERIS_TYPE": 0, "CLASSIFICATION_TYPE": "U", "NORAD_CAT_ID": 41038, "ELEMENT_SET_NO": 999, "REV_AT_EPOCH": 54337, "BSTAR": 0.00012140414, "MEAN_MOTION_DOT": 9.3e-06, "MEAN_MOTION_DDOT": 0}, "tle": {"line1": "1 41038U 15069A   25349.31627025  .00000930  00000+0  12140-3 0  9998", "line2": "2 41038  98.0225  12.4967 0000122 207.3114 152.8093 14.82888391543378"}}, "geometry": {"type": "Point", "coordinates": [-156.79847413580674, 51.11405759141738]}}, {"type": "Feature", "properties": {"norad_id": 41167, "name": "KENT RIDGE 1", "group": "resource", "lat": 6.5074304158086225, "lon": -17.90668503535255, "alt_km": 491.78200899977674, "timestamp": "2025-12-15T22:44:28.580714+00:00", "meta": {"OBJECT_NAME": "KENT RIDGE 1", "OBJECT_ID": "2015-077B", "EPOCH": "2025-12-14T22:28:15.080160", "MEAN_MOTION": 15.21656092, "ECCENTRICITY": 0.00084775, "INCLINATION": 14.9785, "RA_OF_ASC_NODE": 194.8424, "ARG_OF_PERICENTER": 161.9763, "MEAN_ANOMALY": 198.086, "EPHEMERIS_TYPE": 0, "CLASSIFICATION_TYPE": "U", "NORAD_CAT_ID": 41167, "ELEMENT_SET_NO": 999, "REV_AT_EPOCH": 55297, "BSTAR": 0.00014299227, "MEAN_MOTION_DOT": 4.084e-05, "MEAN_MOTION_DDOT": 0}, "tle": {"line1": "1 41167U 15077B   25348.93628565  .00004084  00000+0  14299-3 0  9998", "line2": "2 41167  14.9785 194.8424 0008477 161.9763 198.0860 15.21656092552973"}}, "geometry": {"type": "Point", "coordinates": [-17.90668503535255, 6.5074304158086225]}}, {"type": "Feature", "properties": {"norad_id": 41194, "name": "GAOFEN-4", "group": "resource", "lat": 0.1705641839192597, "lon": 171.6059345536322, "alt_km": 35773.39295098203, "timestamp": "2025-12-15T22:44:28.580729+00:00", "meta": {"OBJECT_NAME": "GAOFEN-4", "OBJECT_ID": "2015-083A", "EPOCH": "2025-12-15T08:40:38.790912", "MEAN_MOTION": 1.00268547, "ECCENTRICITY": 0.00033302, "INCLINATION": 0.177, "RA_OF_ASC_NODE": 81.4675, "ARG_OF_PERICENTER": 102.3672, "MEAN_ANOMALY": 136.2625, "EPHEMERIS_TYPE": 0, "CLASSIFICATION_TYPE": "U", "NORAD_CAT_ID": 41194, "ELEMENT_SET_NO": 999, "REV_AT_EPOCH": 3668, "BSTAR": 0, "MEAN_MOTION_DOT": -3.13e-06, "MEAN_MOTION_DDOT": 0}, "tle": {"line1": "1 41194U 15083A   25349.36156008 -.00000313  00000+0  00000+0 0  9994", "line2": "2 41194   0.1770  81.4675 0003330 102.3672 136.2625  1.00268547 36688"}}, "geometry": {"type": "Point", "coordinates": [171.6059345536322, 0.1705641839192597]}}, {"type": "Feature", "properties": {"norad_id": 41240, "name": "JASON-3", "group": "resource", "lat": 52.067717748738495, "lon": -174.13298784143203, "alt_km": 1309.915775863501, "timestamp": "2025-12-15T22:44:28.580741+00:00", "meta": {"OBJECT_NAME": "JASON-3", "OBJECT_ID": "2016-002A", "EPOCH": "2025-12-15T09:23:01.644864", "MEAN_MOTION": 12.87626679, "ECCENTRICITY": 0.0007161, "INCLINATION": 66.0392, "RA_OF_ASC_NODE": 152.2501, "ARG_OF_PERICENTER": 270.9529, "MEAN_ANOMALY": 89.067, "EPHEMERIS_TYPE": 0, "CLASSIFICATION_TYPE": "U", "NORAD_CAT_ID": 41240, "ELEMENT_SET_NO": 999, "REV_AT_EPOCH": 46358, "BSTAR": 0.00013410946, "MEAN_MOTION_DOT": -2.8e-07, "MEAN_MOTION_DDOT": 0}, "tle": {"line1": "1 41240U 16002A   25349.39099126 -.00000028  00000+0  13411-3 0  9995", "line2": "2 41240  66.0392 152.2501 0007161 270.9529  89.0670 12.87626679463584"}}, "geometry": {"type": "Point", "coordinates": [-174.13298784143203, 52.067717748738495]}}]}